{
  "norad_id": 40045,
  "name": "AEROCUBE 6A",
  "history": [
    {
      "epoch": "2026-04-13T05:14:19.973472Z",
      "apogee_km": 601.326034515997,
      "perigee_km": 548.764011268504,
      "latitude_deg": -3.232619404801373e-06,
      "longitude_deg": -9.081844725563307,
      "height_km": 594.5314258634576,
      "semi_major_axis_km": 6953.18202289225,
      "eccentricity": 0.00377971,
      "inclination_deg": 97.7185,
      "raan_deg": 270.9136,
      "arg_perigee_deg": 231.2522,
      "mean_anomaly_deg": 128.532,
      "mean_motion_rev_day": 14.97363919
    },
    {
      "epoch": "2026-04-14T10:06:27.071424Z",
      "apogee_km": 601.3174367233305,
      "perigee_km": 548.7137778620136,
      "latitude_deg": 5.4271285540593106e-05,
      "longitude_deg": -82.10881902855606,
      "height_km": 595.945920664971,
      "semi_major_axis_km": 6953.152607292672,
      "eccentricity": 0.00378272,
      "inclination_deg": 97.7187,
      "raan_deg": 272.1018,
      "arg_perigee_deg": 227.1472,
      "mean_anomaly_deg": 132.6571,
      "mean_motion_rev_day": 14.97373421
    },
    {
      "epoch": "2026-04-15T08:33:38.803968Z",
      "apogee_km": 601.3504292520092,
      "perigee_km": 548.6402626265599,
      "latitude_deg": -3.337593390527699e-05,
      "longitude_deg": -58.90551380900191,
      "height_km": 596.993787036308,
      "semi_major_axis_km": 6953.132345939284,
      "eccentricity": 0.00379039,
      "inclination_deg": 97.7187,
      "raan_deg": 273.0261,
      "arg_perigee_deg": 224.0163,
      "mean_anomaly_deg": 135.8039,
      "mean_motion_rev_day": 14.97379966
    },
    {
      "epoch": "2026-04-16T10:13:17.514624Z",
      "apogee_km": 601.4160268079631,
      "perigee_km": 548.5251280878329,
      "latitude_deg": -5.5838880081723064e-05,
      "longitude_deg": -83.8144527647221,
      "height_km": 598.1357764171628,
      "semi_major_axis_km": 6953.107577447898,
      "eccentricity": 0.0038034,
      "inclination_deg": 97.7189,
      "raan_deg": 274.0823,
      "arg_perigee_deg": 220.4771,
      "mean_anomaly_deg": 139.362,
      "mean_motion_rev_day": 14.97387967
    },
    {
      "epoch": "2026-04-17T23:06:31.217184Z",
      "apogee_km": 601.4358836004512,
      "perigee_km": 548.4268030419053,
      "latitude_deg": -3.467693510662243e-05,
      "longitude_deg": 82.88185158886101,
      "height_km": 599.6043319355549,
      "semi_major_axis_km": 6953.068343321178,
      "eccentricity": 0.00381192,
      "inclination_deg": 97.7192,
      "raan_deg": 275.6006,
      "arg_perigee_deg": 215.3465,
      "mean_anomaly_deg": 144.5229,
      "mean_motion_rev_day": 14.97400641
    }
  ]
}